{
  "type": "FeatureCollection",
  "features": [
    {
      "type": "Feature",
      "properties": {
        "norad_id": 40376,
        "name": "SMAP",
        "group": "resource",
        "lat": 56.875278059654775,
        "lon": -14.087299197788429,
        "alt_km": 676.1866158779885,
        "timestamp": "2025-12-19T22:41:52.036282+00:00",
        "meta_object_name": "SMAP",
        "meta_object_id": "2015-003A",
        "meta_epoch": "2025-12-19T17:30:41.670144",
        "meta_mean_motion": 14.63353256,
        "meta_eccentricity": 0.0001224,
        "meta_inclination": 98.1288,
        "meta_ra_of_asc_node": 358.3527,
        "meta_arg_of_pericenter": 91.8071,
        "meta_mean_anomaly": 268.3271,
        "meta_ephemeris_type": 0,
        "meta_classification_type": "U",
        "meta_norad_cat_id": 40376,
        "meta_element_set_no": 999,
        "meta_rev_at_epoch": 58137,
        "meta_bstar": 8.2639e-05,
        "meta_mean_motion_dot": 3.8e-06,
        "meta_mean_motion_ddot": 0,
        "tle_line1": "1 40376U 15003A   25353.72964896  .00000380  00000+0  82639-4 0  9990",
        "tle_line2": "2 40376  98.1288 358.3527 0001224  91.8071 268.3271 14.63353256581377"
      },
      "geometry": {
        "type": "Point",
        "coordinates": [
          -14.087299197788429,
          56.875278059654775
        ]
      }
    },
    {
      "type": "Feature",
      "properties": {
        "norad_id": 40536,
        "name": "KOMPSAT-3A",
        "group": "resource",
        "lat": 39.87335928944011,
        "lon": -37.78033502930445,
        "alt_km": 429.49396516758407,
        "timestamp": "2025-12-19T22:41:52.036293+00:00",
        "meta_object_name": "KOMPSAT-3A",
        "meta_object_id": "2015-014A",
        "meta_epoch": "2025-12-19T17:51:29.338848",
        "meta_mean_motion": 15.44188829,
        "meta_eccentricity": 0.0005412,
        "meta_inclination": 97.6789,
        "meta_ra_of_asc_node": 328.4783,
        "meta_arg_of_pericenter": 111.4198,
        "meta_mean_anomaly": 248.7627,
        "meta_ephemeris_type": 0,
        "meta_classification_type": "U",
        "meta_norad_cat_id": 40536,
        "meta_element_set_no": 999,
        "meta_rev_at_epoch": 59403,
        "meta_bstar": 0.00030692,
        "meta_mean_motion_dot": 0.00013998,
        "meta_mean_motion_ddot": 0,
        "tle_line1": "1 40536U 15014A   25353.74408957  .00013998  00000+0  30692-3 0  9993",
        "tle_line2": "2 40536  97.6789 328.4783 0005412 111.4198 248.7627 15.44188829594035"
      },
      "geometry": {
        "type": "Point",
        "coordinates": [
          -37.78033502930445,
          39.87335928944011
        ]
      }
    },
    {
      "type": "Feature",
      "properties": {
        "norad_id": 40697,
        "name": "SENTINEL-2A",
        "group": "resource",
        "lat": 16.15720588896276,
        "lon": -111.11780586627519,
        "alt_km": 789.4607087137947,
        "timestamp": "2025-12-19T22:41:52.036303+00:00",
        "meta_object_name": "SENTINEL-2A",
        "meta_object_id": "2015-028A",
        "meta_epoch": "2025-12-19T18:34:45.607008",
        "meta_mean_motion": 14.30807773,
        "meta_eccentricity": 0.0001078,
        "meta_inclination": 98.5744,
        "meta_ra_of_asc_node": 66.2077,
        "meta_arg_of_pericenter": 87.9281,
        "meta_mean_anomaly": 272.2025,
        "meta_ephemeris_type": 0,
        "meta_classification_type": "U",
        "meta_norad_cat_id": 40697,
        "meta_element_set_no": 999,
        "meta_rev_at_epoch": 54807,
        "meta_bstar": 4.8536e-05,
        "meta_mean_motion_dot": 8.4e-07,
        "meta_mean_motion_ddot": 0,
        "tle_line1": "1 40697U 15028A   25353.77413897  .00000084  00000+0  48536-4 0  9997",
        "tle_line2": "2 40697  98.5744  66.2077 0001078  87.9281 272.2025 14.30807773548078"
      },
      "geometry": {
        "type": "Point",
        "coordinates": [
          -111.11780586627519,
          16.15720588896276
        ]
      }
    },
    {
      "type": "Feature",
      "properties": {
        "norad_id": 40701,
        "name": "GAOFEN-8",
        "group": "resource",
        "lat": 55.35938829875741,
        "lon": 3.7164393560663735,
        "alt_km": 436.47726515256454,
        "timestamp": "2025-12-19T22:41:52.036313+00:00",
        "meta_object_name": "GAOFEN-8",
        "meta_object_id": "2015-030A",
        "meta_epoch": "2025-12-19T19:02:27.015072",
        "meta_mean_motion": 15.38779416,
        "meta_eccentricity": 0.0011902,
        "meta_inclination": 97.69,
        "meta_ra_of_asc_node": 172.2783,
        "meta_arg_of_pericenter": 114.0939,
        "meta_mean_anomaly": 246.1552,
        "meta_ephemeris_type": 0,
        "meta_classification_type": "U",
        "meta_norad_cat_id": 40701,
        "meta_element_set_no": 999,
        "meta_rev_at_epoch": 58379,
        "meta_bstar": 0.00043881,
        "meta_mean_motion_dot": 0.00016791,
        "meta_mean_motion_ddot": 0,
        "tle_line1": "1 40701U 15030A   25353.79336823  .00016791  00000+0  43881-3 0  9990",
        "tle_line2": "2 40701  97.6900 172.2783 0011902 114.0939 246.1552 15.38779416583793"
      },
      "geometry": {
        "type": "Point",
        "coordinates": [
          3.7164393560663735,
          55.35938829875741
        ]
      }
    },
    {
      "type": "Feature",
      "properties": {
        "norad_id": 40718,
        "name": "CARBONITE 1 (CBNT-1)",
        "group": "resource",
        "lat": 46.15725570211231,
        "lon": 166.63825876899887,
        "alt_km": 620.3262370976772,
        "timestamp": "2025-12-19T22:41:52.036323+00:00",
        "meta_object_name": "CARBONITE 1 (CBNT-1)",
        "meta_object_id": "2015-032D",
        "meta_epoch": "2025-12-19T19:14:53.961216",
        "meta_mean_motion": 14.82776712,
        "meta_eccentricity": 0.0014953,
        "meta_inclination": 97.6394,
        "meta_ra_of_asc_node": 174.5345,
        "meta_arg_of_pericenter": 158.3276,
        "meta_mean_anomaly": 201.8574,
        "meta_ephemeris_type": 0,
        "meta_classification_type": "U",
        "meta_norad_cat_id": 40718,
        "meta_element_set_no": 999,
        "meta_rev_at_epoch": 56275,
        "meta_bstar": 0.00029345,
        "meta_mean_motion_dot": 2.326e-05,
        "meta_mean_motion_ddot": 0,
        "tle_line1": "1 40718U 15032D   25353.80201344  .00002326  00000+0  29345-3 0  9999",
        "tle_line2": "2 40718  97.6394 174.5345 0014953 158.3276 201.8574 14.82776712562750"
      },
      "geometry": {
        "type": "Point",
        "coordinates": [
          166.63825876899887,
          46.15725570211231
        ]
      }
    },
    {
      "type": "Feature",
      "properties": {
        "norad_id": 40878,
        "name": "YAOGAN-27",
        "group": "resource",
        "lat": 69.68601905504443,
        "lon": -167.97768370495578,
        "alt_km": 1198.3991336082863,
        "timestamp": "2025-12-19T22:41:52.036333+00:00",
        "meta_object_name": "YAOGAN-27",
        "meta_object_id": "2015-040A",
        "meta_epoch": "2025-12-19T18:30:10.780704",
        "meta_mean_motion": 13.16060606,
        "meta_eccentricity": 0.0007579,
        "meta_inclination": 100.1006,
        "meta_ra_of_asc_node": 343.073,
        "meta_arg_of_pericenter": 269.2648,
        "meta_mean_anomaly": 90.7597,
        "meta_ephemeris_type": 0,
        "meta_classification_type": "U",
        "meta_norad_cat_id": 40878,
        "meta_element_set_no": 999,
        "meta_rev_at_epoch": 49406,
        "meta_bstar": -0.00065218,
        "meta_mean_motion_dot": -2.9e-06,
        "meta_mean_motion_ddot": 0,
        "tle_line1": "1 40878U 15040A   25353.77095811 -.00000290  00000+0 -65218-3 0  9990",
        "tle_line2": "2 40878 100.1006 343.0730 0007579 269.2648  90.7597 13.16060606494061"
      },
      "geometry": {
        "type": "Point",
        "coordinates": [
          -167.97768370495578,
          69.68601905504443
        ]
      }
    },
    {
      "type": "Feature",
      "properties": {
        "norad_id": 40894,
        "name": "GAOFEN-9 01",
        "group": "resource",
        "lat": -40.71288830914913,
        "lon": 39.234549788509476,
        "alt_km": 616.2447967862136,
        "timestamp": "2025-12-19T22:41:52.036343+00:00",
        "meta_object_name": "GAOFEN-9 01",
        "meta_object_id": "2015-047A",
        "meta_epoch": "2025-12-19T18:01:20.676864",
        "meta_mean_motion": 14.82438363,
        "meta_eccentricity": 0.0027831,
        "meta_inclination": 97.6534,
        "meta_ra_of_asc_node": 32.4034,
        "meta_arg_of_pericenter": 11.8038,
        "meta_mean_anomaly": 348.3822,
        "meta_ephemeris_type": 0,
        "meta_classification_type": "U",
        "meta_norad_cat_id": 40894,
        "meta_element_set_no": 999,
        "meta_rev_at_epoch": 55360,
        "meta_bstar": 0.00010524,
        "meta_mean_motion_dot": 7.98e-06,
        "meta_mean_motion_ddot": 0,
        "tle_line1": "1 40894U 15047A   25353.75093376  .00000798  00000+0  10524-3 0  9998",
        "tle_line2": "2 40894  97.6534  32.4034 0027831  11.8038 348.3822 14.82438363553600"
      },
      "geometry": {
        "type": "Point",
        "coordinates": [
          39.234549788509476,
          -40.71288830914913
        ]
      }
    }
  ]
}